[{"OBJECT_NAME":"STARLINK-4761","OBJECT_ID":"2022-114N","EPOCH":"2026-03-09T21:17:31.927776","MEAN_MOTION":15.08837436,"ECCENTRICITY":0.00013243,"INCLINATION":53.2178,"RA_OF_ASC_NODE":303.0624,"ARG_OF_PERICENTER":85.6839,"MEAN_ANOMALY":274.4305,"EPHEMERIS_TYPE":0,"CLASSIFICATION_TYPE":"U","NORAD_CAT_ID":53830,"ELEMENT_SET_NO":999,"REV_AT_EPOCH":19286,"BSTAR":-0.00022674028,"MEAN_MOTION_DOT":-3.894e-5,"MEAN_MOTION_DDOT":0},{"OBJECT_NAME":"FENGYUN 1C DEB","OBJECT_ID":"1999-025ARC","EPOCH":"2026-03-09T09:52:34.584960","MEAN_MOTION":14.8862073,"ECCENTRICITY":0.01277475,"INCLINATION":99.058,"RA_OF_ASC_NODE":51.7347,"ARG_OF_PERICENTER":19.4756,"MEAN_ANOMALY":341.1273,"EPHEMERIS_TYPE":0,"CLASSIFICATION_TYPE":"U","NORAD_CAT_ID":30694,"ELEMENT_SET_NO":999,"REV_AT_EPOCH":1384,"BSTAR":0.0015651053,"MEAN_MOTION_DOT":0.00016942,"MEAN_MOTION_DDOT":0}]
